     2.11           N: GPS NAV DATA                         RINEX VERSION / TYPE
teqc  2019Feb25                         20221121 12:28:22UTCPGM / RUN BY / DATE
OSX ker:10.11.6|Core i5|gcc 4.3 -m64|OSX ker:10.10+|=+      COMMENT
    1.1176D-08  0.0000D+00 -5.9605D-08  0.0000D+00          ION ALPHA
    9.0112D+04  0.0000D+00 -1.9661D+05  0.0000D+00          ION BETA
    7.450580596924D-09 2.664535259100D-14   503808     1553 DELTA-UTC: A0,A1,T,W
                                                            END OF HEADER
 2 09 10 15  0  0  0.0 1.810775138438D-04 3.637978807092D-12 0.000000000000D+00
    5.700000000000D+01 8.225000000000D+01 5.189859035603D-09-1.093137426224D+00
    4.250556230545D-06 9.111556923017D-03 8.404254913330D-06 5.153722805023D+03
    3.456000000000D+05-9.313225746155D-09-2.918245082473D+00-1.061707735062D-07
    9.411411521124D-01 2.081250000000D+02 2.903241372708D+00-8.468567035523D-09
    5.628805890930D-10 1.000000000000D+00 1.553000000000D+03 0.000000000000D+00
    2.000000000000D+00 0.000000000000D+00-1.722946763039D-08 5.700000000000D+01
    3.426120000000D+05 4.000000000000D+00
 4 09 10 15  0  0  0.0-3.112722188234D-04-1.773514668457D-11 0.000000000000D+00
    4.500000000000D+01 7.856250000000D+01 5.201645240832D-09 1.743894774343D+00
    4.213303327560D-06 8.932435419410D-03 8.899718523026D-06 5.153560134888D+03
    3.456000000000D+05-2.291053533554D-07-2.900062107936D+00 1.788139343262D-07
    9.403183235982D-01 1.993750000000D+02 5.373364346079D-01-8.499282600664D-09
    4.368039089218D-10 1.000000000000D+00 1.553000000000D+03 0.000000000000D+00
    2.000000000000D+00 0.000000000000D+00-6.053596735001D-09 4.500000000000D+01
    3.426120000000D+05 4.000000000000D+00
13 09 10 15  0  0  0.0 3.056237474084D-04 2.273736754432D-13 0.000000000000D+00
    5.700000000000D+01-3.621875000000D+01 3.615507743267D-09-4.739698117737D-01
   -1.901760697365D-06 3.954615793191D-03 1.196749508381D-05 5.153642574310D+03
    3.456000000000D+05-6.332993507385D-08-7.470291371506D-01 4.097819328308D-08
    9.943190113436D-01 1.668750000000D+02 1.661961166828D+00-7.635675199378D-09
   -3.092985978138D-10 1.000000000000D+00 1.553000000000D+03 0.000000000000D+00
    2.000000000000D+00 0.000000000000D+00-1.117587089539D-08 5.700000000000D+01
    3.426120000000D+05 4.000000000000D+00
23 09 10 15  0  0  0.0 3.874776884913D-04-4.547473508865D-13 0.000000000000D+00
    1.900000000000D+01-4.243750000000D+01 4.088741741077D-09-1.191726812502D+00
   -2.287328243256D-06 6.390039692633D-03 1.204945147038D-05 5.153768835068D+03
    3.456000000000D+05-6.146728992462D-08-8.023782052672D-01-1.229345798492D-07
    9.696137218806D-01 1.520312500000D+02 2.989583132755D+00-7.843541000680D-09
   -3.103700710164D-10 1.000000000000D+00 1.553000000000D+03 0.000000000000D+00
    2.000000000000D+00 0.000000000000D+00-2.002343535423D-08 1.900000000000D+01
    3.426120000000D+05 4.000000000000D+00
30 09 10 15  0  0  0.0 1.849224790931D-04 3.069544618484D-12 0.000000000000D+00
    1.110000000000D+02-3.946875000000D+01 5.118784646498D-09 1.028287103097D+00
   -2.251937985420D-06 1.194676884916D-02 3.952533006668D-06 5.153655740738D+03
    3.456000000000D+05-2.123415470123D-07 1.241530837394D+00-8.009374141693D-08
    9.531405430894D-01 3.002187500000D+02 1.461502353462D+00-8.784294472553D-09
   -1.635782422618D-10 1.000000000000D+00 1.553000000000D+03 0.000000000000D+00
    2.800000000000D+00 0.000000000000D+00-7.916241884232D-09 1.110000000000D+02
    3.426120000000D+05 4.000000000000D+00
31 09 10 15  0  0  0.0-6.291456520557D-05 5.684341886081D-13 0.000000000000D+00
    3.500000000000D+01 8.065625000000D+01 4.206603793361D-09-2.959046713270D+00
    4.222616553307D-06 7.211252232082D-03 8.335337042809D-06 5.153535057068D+03
    3.456000000000D+05 9.499490261078D-08 2.373687368235D-01-1.117587089539D-08
    9.747040696854D-01 2.280937500000D+02-1.148199737528D+00-7.897471818544D-09
    4.521616914922D-10 1.000000000000D+00 1.553000000000D+03 0.000000000000D+00
    2.000000000000D+00 0.000000000000D+00-1.303851604462D-08 3.500000000000D+01
    3.426120000000D+05 4.000000000000D+00
12 09 10 15  0  0  0.0-2.044048160315D-04 5.456968210638D-12 0.000000000000D+00
    8.400000000000D+01-4.534375000000D+01 4.649479383765D-09-2.734668852837D+00
   -2.283602952957D-06 3.069494268857D-03 4.200264811516D-06 5.153547027588D+03
    3.456000000000D+05-4.284083843231D-08 1.291566891334D+00 4.284083843231D-08
    9.679752697239D-01 3.000312500000D+02-5.768422623099D-01-8.326775415048D-09
   -1.342913080577D-10 1.000000000000D+00 1.553000000000D+03 0.000000000000D+00
    2.000000000000D+00 0.000000000000D+00-1.164153218269D-08 8.400000000000D+01
    3.426480000000D+05 4.000000000000D+00
29 09 10 15  0  0  0.0 6.602564826608D-05 3.183231456205D-12 0.000000000000D+00
    8.500000000000D+01-3.884375000000D+01 4.278392497935D-09 2.598973455025D+00
   -2.255663275719D-06 2.987840678543D-03 1.299008727074D-05 5.153600841522D+03
    3.456000000000D+05 2.421438694000D-08 2.360003713822D+00 3.539025783539D-08
    9.602458967017D-01 1.299062500000D+02-1.268751061512D+00-7.840326581072D-09
   -1.339341503235D-10 1.000000000000D+00 1.553000000000D+03 0.000000000000D+00
    2.000000000000D+00 0.000000000000D+00-8.847564458847D-09 8.500000000000D+01
    3.428580000000D+05 4.000000000000D+00
10 09 10 15  0  0  0.0-2.589961513877D-05-1.023181539495D-12 0.000000000000D+00
    2.600000000000D+01-2.565625000000D+01 5.178072830375D-09 8.123649925484D-03
   -1.277774572372D-06 8.619095198810D-03 3.766268491745D-06 5.153380432129D+03
    3.456000000000D+05-3.539025783539D-08-1.833089375325D+00 5.401670932770D-08
    9.560663456009D-01 3.014687500000D+02 6.168702391215D-01-8.712505767979D-09
   -3.521575259173D-10 1.000000000000D+00 1.553000000000D+03 0.000000000000D+00
    2.000000000000D+00 0.000000000000D+00-2.793967723846D-09 2.600000000000D+01
    3.430980000000D+05 4.000000000000D+00
25 09 10 15  0  0  0.0 6.314101628959D-04 1.352873368887D-11 0.000000000000D+00
    8.000000000000D+01 6.293750000000D+01 4.177316859157D-09 1.768464264046D+00
    3.239139914513D-06 1.125740760472D-02 9.411945939064D-06 5.153640172958D+03
    3.456000000000D+05 2.272427082062D-07 1.446417987172D-01-7.823109626770D-08
    9.715294511413D-01 1.996562500000D+02-1.214382240672D+00-7.833897741857D-09
    3.828730910582D-10 1.000000000000D+00 1.553000000000D+03 0.000000000000D+00
    2.800000000000D+00 0.000000000000D+00-7.450580596924D-09 8.000000000000D+01
    3.449280000000D+05 4.000000000000D+00
